     2.100          NAVIGATION                              RINEX VERSION / TYPE
fic2rin                                 01/18/2009 01:16:13 PGM / RUN BY / DATE
                                                            END OF HEADER
20 09  1 17 14  0  0.0  .934251584113D-04 -.102318153949D-11  .000000000000D+00
     .100000000000D+03  .173750000000D+02  .510271254846D-08 -.862542324876D+00
     .938773155212D-06  .386262871325D-02  .420957803726D-05  .515369503021D+04
     .568800000000D+06  .558793544769D-08  .300815823663D+01  .335276126862D-07
     .944065089403D+00  .288937500000D+03  .130793273290D+01 -.853142679674D-08
    -.144291724615D-09  .100000000000D+01  .151400000000D+04  .000000000000D+00
     .340000000000D+01  .000000000000D+00 -.651925802231D-08  .100000000000D+03
     .561606000000D+06  .400000000000D+01
21 09  1 17 14  0  0.0  .334484502673D-04 -.181898940355D-11  .000000000000D+00
     .880000000000D+02  .597500000000D+02  .525021869268D-08  .257266463472D+00
     .324472784996D-05  .145398582099D-01  .759959220886D-05  .515365044975D+04
     .568800000000D+06  .894069671631D-07  .200347180428D+01  .191852450371D-06
     .934400233337D+00  .216218750000D+03 -.265350535027D+01 -.860000108171D-08
    -.517878714584D-10  .100000000000D+01  .151400000000D+04  .000000000000D+00
     .340000000000D+01  .000000000000D+00 -.116415321827D-07  .880000000000D+02
     .561606000000D+06  .400000000000D+01
22 09  1 17 14  0  0.0  .206488650292D-03 -.568434188608D-12  .000000000000D+00
     .970000000000D+02  .234062500000D+02  .496556397853D-08 -.215478269542D+01
     .115297734737D-05  .493641698267D-02  .441819429398D-05  .515366778183D+04
     .568800000000D+06  .111758708954D-06  .306786077486D+01 -.242143869400D-07
     .942157856771D+00  .284562500000D+03 -.181301761848D+01 -.833427572747D-08
    -.153577825704D-09  .100000000000D+01  .151400000000D+04  .000000000000D+00
     .485000000000D+01  .000000000000D+00 -.181607902050D-07  .970000000000D+02
     .561606000000D+06  .400000000000D+01
23 09  1 17 14  0  0.0  .385262072086D-03  .795807864051D-12  .000000000000D+00
     .770000000000D+02 -.270000000000D+02  .420374653149D-08  .276763656463D+01
    -.138580799103D-05  .576730328612D-02  .784732401371D-05  .515365420151D+04
     .568800000000D+06 -.894069671631D-07 -.220168072425D+01  .912696123123D-07
     .970973527642D+00  .233531250000D+03  .288247319956D+01 -.790032908042D-08
    -.882179603464D-10  .100000000000D+01  .151400000000D+04  .000000000000D+00
     .240000000000D+01  .000000000000D+00 -.200234353542D-07  .770000000000D+02
     .561606000000D+06  .400000000000D+01
24 09  1 17 14  0  0.0  .158281065524D-03  .295585778076D-11  .000000000000D+00
     .600000000000D+02  .705937500000D+02  .480484299814D-08 -.111968263507D+01
     .365078449249D-05  .704068818595D-02  .827386975288D-05  .515367091560D+04
     .568800000000D+06 -.242143869400D-07  .203340631928D+01 -.108033418655D-06
     .951054176138D+00  .215500000000D+03 -.641600585445D+00 -.830141721592D-08
     .110361739867D-09  .100000000000D+01  .151400000000D+04  .000000000000D+00
     .240000000000D+01  .000000000000D+00 -.139698386192D-08  .600000000000D+02
     .561606000000D+06  .400000000000D+01
25 09  1 17 14  0  0.0  .180211383849D-03  .263753463514D-10  .000000000000D+00
     .580000000000D+02 -.496875000000D+01  .439982612756D-08 -.590332044968D+00
    -.316649675369D-06  .117963704979D-01  .825338065624D-05  .515367778778D+04
     .568800000000D+06 -.208616256714D-06 -.125367691224D+01  .316649675369D-07
     .967816178846D+00  .227250000000D+03 -.123721744831D+01 -.819462705339D-08
     .422517599554D-09  .100000000000D+01  .151400000000D+04  .000000000000D+00
     .240000000000D+01  .000000000000D+00 -.745058059692D-08  .580000000000D+02
     .561606000000D+06  .400000000000D+01
26 09  1 17 14  0  0.0  .369632616639D-04  .341060513165D-11  .000000000000D+00
     .760000000000D+02 -.457500000000D+02  .355907682126D-08  .233011460925D+01
    -.251270830631D-05  .194668116746D-01  .828877091408D-05  .515364618301D+04
     .568800000000D+06  .111758708954D-07 -.215479669701D+01 -.376254320145D-06
     .993191069320D+00  .236843750000D+03  .965641251223D+00 -.752317051311D-08
    -.453590322429D-10  .100000000000D+01  .151400000000D+04  .000000000000D+00
     .240000000000D+01  .000000000000D+00 -.605359673500D-08  .760000000000D+02
     .561606000000D+06  .400000000000D+01
27 09  1 17 14  0  0.0  .170054845512D-04  .306954461848D-11  .000000000000D+00
     .330000000000D+02  .121875000000D+01  .424410535545D-08 -.130346262871D+01
     .514090061188D-06  .210780902999D-01  .833906233311D-05  .515519907188D+04
     .568800000000D+06 -.763684511185D-07 -.121789286956D+01  .560656189919D-06
     .972472891399D+00  .226187500000D+03 -.166171167493D+01 -.805747848346D-08
     .378230040514D-09  .100000000000D+01  .151400000000D+04  .000000000000D+00
     .240000000000D+01  .000000000000D+00 -.465661287308D-08  .330000000000D+02
     .561606000000D+06  .400000000000D+01
29 09  1 17 14  0  0.0 -.174613669515D-04  .272848410532D-11  .000000000000D+00
     .490000000000D+02 -.180000000000D+02  .464447917549D-08  .319098532055D+00
    -.847503542900D-06  .323196803220D-02  .997632741928D-05  .515375754929D+04
     .568800000000D+06 -.391155481339D-07  .958773330678D+00 -.782310962677D-07
     .959792599831D+00  .190718750000D+03 -.134148350386D+01 -.804676375144D-08
    -.202508435289D-09  .100000000000D+01  .151400000000D+04  .000000000000D+00
     .240000000000D+01  .000000000000D+00 -.884756445885D-08  .490000000000D+02
     .561606000000D+06  .400000000000D+01
30 09  1 17 14  0  0.0  .120356678963D-03  .227373675443D-11  .000000000000D+00
     .730000000000D+02 -.295937500000D+02  .507342561426D-08 -.138145880246D+01
    -.136159360409D-05  .111667112214D-01  .622496008873D-05  .515364797592D+04
     .568800000000D+06  .335276126862D-07 -.153290339261D+00  .283122062683D-06
     .951097357091D+00  .256031250000D+03  .141495264543D+01 -.832998983466D-08
     .742888087128D-10  .100000000000D+01  .151400000000D+04  .000000000000D+00
     .340000000000D+01  .000000000000D+00 -.791624188423D-08  .730000000000D+02
     .561606000000D+06  .400000000000D+01
31 09  1 17 14  0  0.0 -.480632297695D-04 -.147792889038D-11  .000000000000D+00
     .710000000000D+02 -.160625000000D+02  .424124809358D-08  .111731923093D+01
    -.867992639542D-06  .714696338400D-02  .730156898499D-05  .515362581062D+04
     .568800000000D+06 -.111758708954D-07 -.116163021202D+01 -.221654772758D-06
     .970904621275D+00  .242781250000D+03 -.120819806463D+01 -.801747681723D-08
     .323227749447D-09  .100000000000D+01  .151400000000D+04  .000000000000D+00
     .340000000000D+01  .000000000000D+00 -.130385160446D-07  .710000000000D+02
     .561606000000D+06  .400000000000D+01
32 09  1 17 14  0  0.0  .302865169942D-03 -.272848410532D-11  .000000000000D+00
     .106000000000D+03  .129062500000D+02  .444875673715D-08  .196999973538D+01
     .523403286934D-06  .136529842857D-01  .403448939323D-05  .515365763283D+04
     .568800000000D+06  .257045030594D-06  .311490266559D+01  .372529029846D-08
     .966095924699D+00  .300031250000D+03 -.121099012717D+01 -.798497546342D-08
    -.252510518077D-09  .100000000000D+01  .151400000000D+04  .000000000000D+00
     .340000000000D+01  .000000000000D+00 -.325962901115D-08  .106000000000D+03
     .561606000000D+06  .400000000000D+01
20 09  1 17 13 59 44.0  .934251584113D-04 -.102318153949D-11  .000000000000D+00
     .110000000000D+02  .173750000000D+02  .510271254846D-08 -.864875819652D+00
     .938773155212D-06  .386262463871D-02  .420957803726D-05  .515369502449D+04
     .568784000000D+06  .558793544769D-08  .300815838877D+01  .335276126862D-07
     .944065099644D+00  .288937500000D+03  .130793257783D+01 -.853142679674D-08
    -.144291724615D-09  .100000000000D+01  .151400000000D+04  .000000000000D+00
     .240000000000D+01  .000000000000D+00 -.651925802231D-08  .110000000000D+02
     .562656000000D+06  .400000000000D+01
12 09  1 17 13 59 44.0 -.324743799865D-03  .341060513165D-11  .000000000000D+00
     .600000000000D+01 -.352812500000D+02  .473233997810D-08  .139015311478D+01
    -.189617276192D-05  .312670937274D-02  .637955963612D-05  .515373296928D+04
     .568784000000D+06  .819563865662D-07 -.107655835703D+00 -.130385160446D-07
     .966144259512D+00  .261375000000D+03 -.823994159921D+00 -.809890878063D-08
     .467876631797D-10  .100000000000D+01  .151400000000D+04  .000000000000D+00
     .240000000000D+01  .000000000000D+00 -.116415321827D-07  .600000000000D+01
     .563706000000D+06  .400000000000D+01
10 09  1 17 13 59 44.0 -.965269282460D-05 -.568434188608D-12  .000000000000D+00
     .160000000000D+02  .181250000000D+02  .466733727047D-08 -.239827537848D+01
     .819563865662D-06  .846868706867D-02  .447407364845D-05  .515377020645D+04
     .568784000000D+06  .745058059692D-08  .305447898921D+01 -.894069671631D-07
     .960439780161D+00  .295281250000D+03  .580334595940D+00 -.823320008869D-08
    -.582167106740D-10  .100000000000D+01  .151400000000D+04  .000000000000D+00
     .240000000000D+01  .000000000000D+00 -.279396772385D-08  .160000000000D+02
     .564636000000D+06  .400000000000D+01
 9 09  1 17 13 59 44.0  .354661606252D-04  .193267624127D-11  .000000000000D+00
     .620000000000D+02 -.131562500000D+02  .431875132190D-08  .252477250039D+00
    -.748783349991D-06  .201311062556D-01  .798515975475D-05  .515365406036D+04
     .568784000000D+06 -.234693288803D-06 -.119386324782D+01  .372529029846D-08
     .974441053107D+00  .236781250000D+03  .145738907694D+01 -.833463288520D-08
     .272511351192D-09  .100000000000D+01  .151400000000D+04  .000000000000D+00
     .240000000000D+01  .000000000000D+00 -.558793544769D-08  .620000000000D+02
     .565656000000D+06  .400000000000D+01
